{
  "type": "FeatureCollection",
  "features": [
    {
      "type": "Feature",
      "properties": {
        "norad_id": 67110,
        "name": "STARLINK-35781",
        "group": "last-30-days",
        "lat": 11.725839813512321,
        "lon": -114.67232778563407,
        "alt_km": 331.54693519120883,
        "timestamp": "2025-12-26T11:25:43.988794+00:00",
        "meta_object_name": "STARLINK-35781",
        "meta_object_id": "2025-299J",
        "meta_epoch": "2025-12-26T04:00:01.998720",
        "meta_mean_motion": 15.80282893,
        "meta_eccentricity": 0.0001676,
        "meta_inclination": 42.9971,
        "meta_ra_of_asc_node": 234.3473,
        "meta_arg_of_pericenter": 271.8375,
        "meta_mean_anomaly": 143.2497,
        "meta_ephemeris_type": 0,
        "meta_classification_type": "U",
        "meta_norad_cat_id": 67110,
        "meta_element_set_no": 999,
        "meta_rev_at_epoch": 291,
        "meta_bstar": -0.010274,
        "meta_mean_motion_dot": -0.01760741,
        "meta_mean_motion_ddot": 0,
        "tle_line1": "1 67110U 25299J   25360.16668980 -.01760741  00000+0 -10274-1 0  9994",
        "tle_line2": "2 67110  42.9971 234.3473 0001676 271.8375 143.2497 15.80282893  2916"
      },
      "geometry": {
        "type": "Point",
        "coordinates": [
          -114.67232778563407,
          11.725839813512321
        ]
      }
    },
    {
      "type": "Feature",
      "properties": {
        "norad_id": 67111,
        "name": "STARLINK-35875",
        "group": "last-30-days",
        "lat": 10.553262871415425,
        "lon": -116.00520868062691,
        "alt_km": 331.7226394533991,
        "timestamp": "2025-12-26T11:25:43.988804+00:00",
        "meta_object_name": "STARLINK-35875",
        "meta_object_id": "2025-299K",
        "meta_epoch": "2025-12-26T04:00:01.998720",
        "meta_mean_motion": 15.8027539,
        "meta_eccentricity": 0.0001845,
        "meta_inclination": 42.9974,
        "meta_ra_of_asc_node": 234.3521,
        "meta_arg_of_pericenter": 271.61,
        "meta_mean_anomaly": 141.7224,
        "meta_ephemeris_type": 0,
        "meta_classification_type": "U",
        "meta_norad_cat_id": 67111,
        "meta_element_set_no": 999,
        "meta_rev_at_epoch": 286,
        "meta_bstar": -0.010245,
        "meta_mean_motion_dot": -0.01755938,
        "meta_mean_motion_ddot": 0,
        "tle_line1": "1 67111U 25299K   25360.16668980 -.01755938  00000+0 -10245-1 0  9995",
        "tle_line2": "2 67111  42.9974 234.3521 0001845 271.6100 141.7224 15.80275390  2865"
      },
      "geometry": {
        "type": "Point",
        "coordinates": [
          -116.00520868062691,
          10.553262871415425
        ]
      }
    },
    {
      "type": "Feature",
      "properties": {
        "norad_id": 67112,
        "name": "STARLINK-35906",
        "group": "last-30-days",
        "lat": 12.749013553289533,
        "lon": -113.49363129933299,
        "alt_km": 331.379712137923,
        "timestamp": "2025-12-26T11:25:43.988813+00:00",
        "meta_object_name": "STARLINK-35906",
        "meta_object_id": "2025-299L",
        "meta_epoch": "2025-12-26T04:00:01.998720",
        "meta_mean_motion": 15.80298172,
        "meta_eccentricity": 0.0001603,
        "meta_inclination": 42.9971,
        "meta_ra_of_asc_node": 234.3437,
        "meta_arg_of_pericenter": 271.5001,
        "meta_mean_anomaly": 145.1138,
        "meta_ephemeris_type": 0,
        "meta_classification_type": "U",
        "meta_norad_cat_id": 67112,
        "meta_element_set_no": 999,
        "meta_rev_at_epoch": 286,
        "meta_bstar": -0.010271,
        "meta_mean_motion_dot": -0.01761291,
        "meta_mean_motion_ddot": 0,
        "tle_line1": "1 67112U 25299L   25360.16668980 -.01761291  00000+0 -10271-1 0  9994",
        "tle_line2": "2 67112  42.9971 234.3437 0001603 271.5001 145.1138 15.80298172  2865"
      },
      "geometry": {
        "type": "Point",
        "coordinates": [
          -113.49363129933299,
          12.749013553289533
        ]
      }
    },
    {
      "type": "Feature",
      "properties": {
        "norad_id": 67113,
        "name": "STARLINK-35789",
        "group": "last-30-days",
        "lat": 13.821897934048145,
        "lon": -112.24116780882345,
        "alt_km": 331.2162375002699,
        "timestamp": "2025-12-26T11:25:43.988822+00:00",
        "meta_object_name": "STARLINK-35789",
        "meta_object_id": "2025-299M",
        "meta_epoch": "2025-12-26T04:00:01.998720",
        "meta_mean_motion": 15.80311445,
        "meta_eccentricity": 0.0001786,
        "meta_inclination": 42.9969,
        "meta_ra_of_asc_node": 234.3393,
        "meta_arg_of_pericenter": 273.0459,
        "meta_mean_anomaly": 145.1786,
        "meta_ephemeris_type": 0,
        "meta_classification_type": "U",
        "meta_norad_cat_id": 67113,
        "meta_element_set_no": 999,
        "meta_rev_at_epoch": 286,
        "meta_bstar": -0.010287,
        "meta_mean_motion_dot": -0.01764776,
        "meta_mean_motion_ddot": 0,
        "tle_line1": "1 67113U 25299M   25360.16668980 -.01764776  00000+0 -10287-1 0  9993",
        "tle_line2": "2 67113  42.9969 234.3393 0001786 273.0459 145.1786 15.80311445  2868"
      },
      "geometry": {
        "type": "Point",
        "coordinates": [
          -112.24116780882345,
          13.821897934048145
        ]
      }
    },
    {
      "type": "Feature",
      "properties": {
        "norad_id": 67114,
        "name": "STARLINK-36180",
        "group": "last-30-days",
        "lat": 15.024062634057456,
        "lon": -110.8142604084372,
        "alt_km": 331.0809026354127,
        "timestamp": "2025-12-26T11:25:43.988831+00:00",
        "meta_object_name": "STARLINK-36180",
        "meta_object_id": "2025-299N",
        "meta_epoch": "2025-12-26T04:00:01.998720",
        "meta_mean_motion": 15.80313466,
        "meta_eccentricity": 0.0001552,
        "meta_inclination": 42.9969,
        "meta_ra_of_asc_node": 234.3349,
        "meta_arg_of_pericenter": 270.092,
        "meta_mean_anomaly": 149.9658,
        "meta_ephemeris_type": 0,
        "meta_classification_type": "U",
        "meta_norad_cat_id": 67114,
        "meta_element_set_no": 999,
        "meta_rev_at_epoch": 296,
        "meta_bstar": -0.010265,
        "meta_mean_motion_dot": -0.01761394,
        "meta_mean_motion_ddot": 0,
        "tle_line1": "1 67114U 25299N   25360.16668980 -.01761394  00000+0 -10265-1 0  9993",
        "tle_line2": "2 67114  42.9969 234.3349 0001552 270.0920 149.9658 15.80313466  2967"
      },
      "geometry": {
        "type": "Point",
        "coordinates": [
          -110.8142604084372,
          15.024062634057456
        ]
      }
    },
    {
      "type": "Feature",
      "properties": {
        "norad_id": 67115,
        "name": "STARLINK-35892",
        "group": "last-30-days",
        "lat": 16.09422254700132,
        "lon": -109.52147694999232,
        "alt_km": 330.9105871260199,
        "timestamp": "2025-12-26T11:25:43.988842+00:00",
        "meta_object_name": "STARLINK-35892",
        "meta_object_id": "2025-299P",
        "meta_epoch": "2025-12-26T04:00:01.998720",
        "meta_mean_motion": 15.80323321,
        "meta_eccentricity": 0.0001571,
        "meta_inclination": 42.997,
        "meta_ra_of_asc_node": 234.3308,
        "meta_arg_of_pericenter": 270.6158,
        "meta_mean_anomaly": 151.0745,
        "meta_ephemeris_type": 0,
        "meta_classification_type": "U",
        "meta_norad_cat_id": 67115,
        "meta_element_set_no": 999,
        "meta_rev_at_epoch": 286,
        "meta_bstar": -0.010255,
        "meta_mean_motion_dot": -0.01760566,
        "meta_mean_motion_ddot": 0,
        "tle_line1": "1 67115U 25299P   25360.16668980 -.01760566  00000+0 -10255-1 0  9993",
        "tle_line2": "2 67115  42.9970 234.3308 0001571 270.6158 151.0745 15.80323321  2866"
      },
      "geometry": {
        "type": "Point",
        "coordinates": [
          -109.52147694999232,
          16.09422254700132
        ]
      }
    },
    {
      "type": "Feature",
      "properties": {
        "norad_id": 67116,
        "name": "STARLINK-35738",
        "group": "last-30-days",
        "lat": 17.309997323851718,
        "lon": -108.02382762243218,
        "alt_km": 330.5528204783195,
        "timestamp": "2025-12-26T11:25:43.988852+00:00",
        "meta_object_name": "STARLINK-35738",
        "meta_object_id": "2025-299Q",
        "meta_epoch": "2025-12-26T04:00:01.998720",
        "meta_mean_motion": 15.80322203,
        "meta_eccentricity": 0.0001696,
        "meta_inclination": 42.9971,
        "meta_ra_of_asc_node": 234.326,
        "meta_arg_of_pericenter": 280.1905,
        "meta_mean_anomaly": 143.3795,
        "meta_ephemeris_type": 0,
        "meta_classification_type": "U",
        "meta_norad_cat_id": 67116,
        "meta_element_set_no": 999,
        "meta_rev_at_epoch": 286,
        "meta_bstar": -0.01023,
        "meta_mean_motion_dot": -0.01756896,
        "meta_mean_motion_ddot": 0,
        "tle_line1": "1 67116U 25299Q   25360.16668980 -.01756896  00000+0 -10230-1 0  9998",
        "tle_line2": "2 67116  42.9971 234.3260 0001696 280.1905 143.3795 15.80322203  2866"
      },
      "geometry": {
        "type": "Point",
        "coordinates": [
          -108.02382762243218,
          17.309997323851718
        ]
      }
    }
  ]
}